NORAD_CAT_ID,OBJECT_NAME,OBJECT_TYPE,EPOCH,MEAN_MOTION,ECCENTRICITY,INCLINATION,RA_OF_ASC_NODE,ARG_OF_PERICENTER,MEAN_ANOMALY,BSTAR,MEAN_MOTION_DOT,MEAN_MOTION_DDOT,TLE_LINE0,TLE_LINE1,TLE_LINE2,SEMIMAJOR_AXIS,PERIOD,APOGEE,PERIGEE,DECAYED
55791.0,STARLINK-5807,PAYLOAD,2024-04-13 12:14:28,14.98327651,0.0003006,69.9997,157.3087,267.1711,92.9104,2.7937e-05,2.4e-06,0.0,0 STARLINK-5807,1 55791U 23028BC  24104.51005692  .00000240  00000-0  27937-4 0  9999,2 55791  69.9997 157.3087 0003006 267.1711  92.9104 14.98327651 62888,6950.2,96.107,574.154,569.976,0.0
55791.0,STARLINK-5807,PAYLOAD,2024-04-13 13:50:36,14.98329007,0.0003082,69.9998,157.1404,269.1693,90.9113,3.7856e-05,3.59e-06,0.0,0 STARLINK-5807,1 55791U 23028BC  24104.57681581  .00000359  00000-0  37856-4 0  9994,2 55791  69.9998 157.1404 0003082 269.1693  90.9113 14.98329007 62903,6950.196,96.107,574.203,569.919,0.0
55791.0,STARLINK-5807,PAYLOAD,2024-04-14 12:16:29,14.98355307,0.0002611,69.9999,154.7846,268.2715,91.8145,-0.00035243,-4.298e-05,0.0,0 STARLINK-5807,1 55791U 23028BC  24105.51144848 -.00004298  00000-0 -35243-3 0  9994,2 55791  69.9999 154.7846 0002611 268.2715  91.8145 14.98355307 63031,6950.115,96.105,573.794,570.165,0.0
55791.0,STARLINK-5807,PAYLOAD,2024-04-15 04:17:50,14.98330087,0.0003024,69.9998,153.1014,270.5759,89.5054,3.9836e-05,3.82e-06,0.0,0 STARLINK-5807,1 55791U 23028BC  24106.17905320  .00000382  00000-0  39836-4 0  9998,2 55791  69.9998 153.1014 0003024 270.5759  89.5054 14.98330087 63135,6950.193,96.107,574.159,569.956,0.0
55791.0,STARLINK-5807,PAYLOAD,2024-04-15 13:54:38,14.98331716,0.0002943,69.9996,152.0915,266.7554,93.3269,2.6701e-05,2.26e-06,0.0,0 STARLINK-5807,1 55791U 23028BC  24106.57961201  .00000226  00000-0  26701-4 0  9996,2 55791  69.9996 152.0915 0002943 266.7554  93.3269 14.98331716 63209,6950.188,96.107,574.098,570.007,0.0
55791.0,STARLINK-5807,PAYLOAD,2024-04-15 20:19:10,14.983312,0.0002953,69.9996,151.4179,269.2682,90.8138,-4.6178e-06,-1.48e-06,0.0,0 STARLINK-5807,1 55791U 23028BC  24106.84665290 -.00000148  00000-0 -46178-5 0  9991,2 55791  69.9996 151.4179 0002953 269.2682  90.8138 14.98331200 63244,6950.189,96.107,574.107,570.002,0.0
55791.0,STARLINK-5807,PAYLOAD,2024-04-16 04:19:51,14.98328464,0.0002943,69.9996,150.5766,270.555,89.5271,-5.669e-05,-7.69e-06,0.0,0 STARLINK-5807,1 55791U 23028BC  24107.18045599 -.00000769  00000-0 -56690-4 0  9991,2 55791  69.9996 150.5766 0002943 270.5550  89.5271 14.98328464 63289,6950.198,96.107,574.108,570.017,0.0
55791.0,STARLINK-5807,PAYLOAD,2024-04-16 10:44:23,14.98331363,0.0002957,69.9995,149.9032,269.973,90.109,-2.2465e-05,-3.61e-06,0.0,0 STARLINK-5807,1 55791U 23028BC  24107.44749298 -.00000361  00000-0 -22465-4 0  9998,2 55791  69.9995 149.9032 0002957 269.9730  90.1090 14.98331363 63338,6950.189,96.107,574.109,569.999,0.0
55791.0,STARLINK-5807,PAYLOAD,2024-04-17 04:21:51,14.98332818,0.0002987,69.9993,148.0515,269.9735,90.1081,1.7538e-05,1.16e-06,0.0,0 STARLINK-5807,1 55791U 23028BC  24108.18184940  .00000116  00000-0  17538-4 0  9998,2 55791  69.9993 148.0515 0002987 269.9735  90.1081 14.98332818 63437,6950.184,96.107,574.125,569.973,0.0
55791.0,STARLINK-5807,PAYLOAD,2024-04-17 12:22:31,14.983361,0.000297,69.9992,147.21,270.0084,90.0735,5.3367e-05,5.44e-06,0.0,0 STARLINK-5807,1 55791U 23028BC  24108.51564539  .00000544  00000-0  53367-4 0  9996,2 55791  69.9992 147.2100 0002970 270.0084  90.0735 14.98336100 63498,6950.174,96.107,574.103,569.975,0.0
55791.0,STARLINK-5807,PAYLOAD,2024-04-18 04:23:53,14.98318682,0.0002721,70.0008,145.5263,257.5,102.5855,-7.8173e-05,-1.025e-05,0.0,0 STARLINK-5807,1 55791U 23028BC  24109.18326122 -.00001025  00000-0 -78173-4 0  9993,2 55791  70.0008 145.5263 0002721 257.5000 102.5855 14.98318682 63589,6950.228,96.108,573.984,570.202,0.0
55791.0,STARLINK-5807,PAYLOAD,2024-04-18 12:24:34,14.98319265,0.0003097,69.9988,144.6845,268.1357,91.9448,-9.5915e-05,-1.237e-05,0.0,0 STARLINK-5807,1 55791U 23028BC  24109.51706368 -.00001237  00000-0 -95915-4 0  9992,2 55791  69.9988 144.6845 0003097 268.1357  91.9448 14.98319265 63643,6950.226,96.108,574.244,569.939,0.0
55791.0,STARLINK-5807,PAYLOAD,2024-04-19 04:25:54,14.98327273,0.0003372,69.9981,143.0005,272.2196,87.8577,-4.562e-05,-6.37e-06,0.0,0 STARLINK-5807,1 55791U 23028BC  24110.18465937 -.00000637  00000-0 -45620-4 0  9992,2 55791  69.9981 143.0005 0003372 272.2196  87.8577 14.98327273 63735,6950.201,96.107,574.41,569.723,0.0
55791.0,STARLINK-5807,PAYLOAD,2024-04-19 12:26:31,14.98364408,0.000296,69.9996,142.1618,249.9449,110.1392,0.0003494,4.082e-05,0.0,0 STARLINK-5807,1 55791U 23028BC  24110.51842073  .00004082  00000-0  34940-3 0  9997,2 55791  69.9996 142.1618 0002960 249.9449 110.1392 14.98364408 63786,6950.086,96.105,574.009,569.894,0.0
55791.0,STARLINK-5807,PAYLOAD,2024-04-20 04:27:54,14.98330521,0.0003248,69.9978,140.4753,276.3294,83.7495,0.00014154,1.596e-05,0.0,0 STARLINK-5807,1 55791U 23028BC  24111.18604499  .00001596  00000-0  14154-3 0  9991,2 55791  69.9978 140.4753 0003248 276.3294  83.7495 14.98330521 63888,6950.191,96.107,574.314,569.799,0.0
55791.0,STARLINK-5807,PAYLOAD,2024-04-20 10:52:26,14.98329439,0.0002993,69.9985,139.8025,270.9243,89.1573,0.00013996,1.577e-05,0.0,0 STARLINK-5807,1 55791U 23028BC  24111.45308508  .00001577  00000-0  13996-3 0  9995,2 55791  69.9985 139.8025 0002993 270.9243  89.1573 14.98329439 63939,6950.195,96.107,574.14,569.979,0.0
55791.0,STARLINK-5807,PAYLOAD,2024-04-21 04:29:56,14.98319439,0.000261,70.0007,137.9565,227.6182,132.4757,-0.00015319,-1.92e-05,0.0,0 STARLINK-5807,1 55791U 23028BC  24112.18746282 -.00001920  00000-0 -15319-3 0  9996,2 55791  70.0007 137.9565 0002610 227.6182 132.4757 14.98319439 64039,6950.226,96.108,573.905,570.277,0.0
55791.0,STARLINK-5807,PAYLOAD,2024-04-21 10:54:29,14.9830911,0.0002493,69.9998,137.2802,244.235,115.8552,-0.00024124,-2.968e-05,0.0,0 STARLINK-5807,1 55791U 23028BC  24112.45451350 -.00002968  00000-0 -24124-3 0  9992,2 55791  69.9998 137.2802 0002493 244.2350 115.8552 14.98309110 64081,6950.257,96.108,573.855,570.39,0.0
55791.0,STARLINK-5807,PAYLOAD,2024-04-22 04:31:58,14.98312881,0.00026,69.9996,135.4279,263.7522,96.334,-8.779e-05,-1.14e-05,0.0,0 STARLINK-5807,1 55791U 23028BC  24113.18886998 -.00001140  00000-0 -87790-4 0  9993,2 55791  69.9996 135.4279 0002600 263.7522  96.3340 14.98312881 64182,6950.246,96.108,573.918,570.304,0.0
55791.0,STARLINK-5807,PAYLOAD,2024-04-22 10:56:30,14.98315911,0.000265,69.9989,134.7532,268.5939,91.4917,-8.1611e-05,-1.066e-05,0.0,0 STARLINK-5807,1 55791U 23028BC  24113.45591058 -.00001066  00000-0 -81611-4 0  9996,2 55791  69.9989 134.7532 0002650 268.5939  91.4917 14.98315911 64237,6950.236,96.108,573.943,570.26,0.0
55791.0,STARLINK-5807,PAYLOAD,2024-04-23 04:33:59,14.98313917,0.0002822,69.9981,132.9005,264.2284,95.8553,0.00018987,2.172e-05,0.0,0 STARLINK-5807,1 55791U 23028BC  24114.19026997  .00002172  00000-0  18987-3 0  9995,2 55791  69.9981 132.9005 0002822 264.2284  95.8553 14.98313917 64330,6950.243,96.108,574.069,570.146,0.0
55791.0,STARLINK-5807,PAYLOAD,2024-04-23 10:58:31,14.98319734,0.0002794,69.9986,132.2285,264.1693,95.9148,0.00022909,2.641e-05,0.0,0 STARLINK-5807,1 55791U 23028BC  24114.45730761  .00002641  00000-0  22909-3 0  9995,2 55791  69.9986 132.2285 0002794 264.1693  95.9148 14.98319734 64388,6950.225,96.108,574.032,570.148,0.0
55791.0,STARLINK-5807,PAYLOAD,2024-04-24 02:59:51,14.98333558,0.0002813,69.9988,130.5459,264.1416,95.9422,0.00017794,2.031e-05,0.0,0 STARLINK-5807,1 55791U 23028BC  24115.12490178  .00002031  00000-0  17794-3 0  9994,2 55791  69.9988 130.5459 0002813 264.1416  95.9422 14.98333558 64474,6950.182,96.107,574.002,570.092,0.0
55791.0,STARLINK-5807,PAYLOAD,2024-04-24 11:00:31,14.98338695,0.0002669,69.9987,129.7038,256.6874,103.3987,0.00015597,1.769e-05,0.0,0 STARLINK-5807,1 55791U 23028BC  24115.45869738  .00001769  00000-0  15597-3 0  9998,2 55791  69.9987 129.7038 0002669 256.6874 103.3987 14.98338695 64533,6950.166,96.106,573.886,570.176,0.0
55791.0,STARLINK-5807,PAYLOAD,2024-04-25 04:37:59,14.98341546,0.0002945,69.9985,127.8515,268.5354,91.5468,4.5493e-05,4.5e-06,0.0,0 STARLINK-5807,1 55791U 23028BC  24116.19305444  .00000450  00000-0  45493-4 0  9994,2 55791  69.9985 127.8515 0002945 268.5354  91.5468 14.98341546 64634,6950.157,96.106,574.069,569.975,0.0
55791.0,STARLINK-5807,PAYLOAD,2024-04-25 11:02:31,14.98340904,0.0002749,69.9989,127.1789,265.0434,95.0411,7.6313e-05,8.18e-06,0.0,0 STARLINK-5807,1 55791U 23028BC  24116.46009235  .00000818  00000-0  76313-4 0  9996,2 55791  69.9989 127.1789 0002749 265.0434  95.0411 14.98340904 64686,6950.159,96.106,573.935,570.114,0.0
55791.0,STARLINK-5807,PAYLOAD,2024-04-26 04:40:00,14.98357594,0.0002354,69.9993,125.3272,249.6378,110.4528,-0.0003642,-4.439e-05,0.0,0 STARLINK-5807,1 55791U 23028BC  24117.19444891 -.00004439  00000-0 -36420-3 0  9997,2 55791  69.9993 125.3272 0002354 249.6378 110.4528 14.98357594 64780,6950.108,96.105,573.609,570.337,0.0
55791.0,STARLINK-5807,PAYLOAD,2024-04-26 11:04:32,14.98353792,0.000239,69.999,124.6533,253.2593,106.8304,-0.00035634,-4.345e-05,0.0,0 STARLINK-5807,1 55791U 23028BC  24117.46148702 -.00004345  00000-0 -35634-3 0  9991,2 55791  69.9990 124.6533 0002390 253.2593 106.8304 14.98353792 64832,6950.119,96.105,573.645,570.323,0.0
55791.0,STARLINK-5807,PAYLOAD,2024-04-27 03:05:53,14.98339672,0.0002804,69.9987,122.97,266.8155,93.2684,-0.00014296,-1.799e-05,0.0,0 STARLINK-5807,1 55791U 23028BC  24118.12908814 -.00001799  00000-0 -14296-3 0  9994,2 55791  69.9987 122.9700 0002804 266.8155  93.2684 14.98339672 64920,6950.163,96.106,573.977,570.079,0.0
55791.0,STARLINK-5807,PAYLOAD,2024-04-27 11:06:33,14.98335224,0.0002918,69.9985,122.1285,268.0086,92.0738,-3.042e-05,-4.56e-06,0.0,0 STARLINK-5807,1 55791U 23028BC  24118.46288617 -.00000456  00000-0 -30420-4 0  9990,2 55791  69.9985 122.1285 0002918 268.0086  92.0738 14.98335224 64983,6950.177,96.107,574.07,570.014,0.0
